[{"OBJECT_NAME":"STARLINK-36441","OBJECT_ID":"2026-008AA","EPOCH":"2026-03-09T14:12:07.041024","MEAN_MOTION":15.27568643,"ECCENTRICITY":0.0001634,"INCLINATION":42.9987,"RA_OF_ASC_NODE":206.0758,"ARG_OF_PERICENTER":278.6295,"MEAN_ANOMALY":81.4372,"EPHEMERIS_TYPE":0,"CLASSIFICATION_TYPE":"U","NORAD_CAT_ID":67469,"ELEMENT_SET_NO":999,"REV_AT_EPOCH":955,"BSTAR":0.00085882,"MEAN_MOTION_DOT":0.00023438,"MEAN_MOTION_DDOT":0},{"OBJECT_NAME":"OBJECT J","OBJECT_ID":"2026-023J","EPOCH":"2026-03-09T17:10:35.014656","MEAN_MOTION":15.23262782,"ECCENTRICITY":0.00239883,"INCLINATION":96.6344,"RA_OF_ASC_NODE":144.1739,"ARG_OF_PERICENTER":114.5009,"MEAN_ANOMALY":245.8735,"EPHEMERIS_TYPE":0,"CLASSIFICATION_TYPE":"U","NORAD_CAT_ID":67682,"ELEMENT_SET_NO":999,"REV_AT_EPOCH":484,"BSTAR":0.00057379131,"MEAN_MOTION_DOT":0.00013658,"MEAN_MOTION_DDOT":0}]
